IRIDIUM 57 [-]          
1 25273U 98019B   24060.86775416  .00000469  00000+0  15775-3 0  9998
2 25273  86.4016 343.4918 0002152  86.8217 273.3225 14.35103108357094
IRIDIUM 63 [-]          
1 25286U 98021B   24060.58332495  .00000390  00000+0  12856-3 0  9990
2 25286  86.3940 280.5239 0002117  82.2955 277.8481 14.35620359355879
IRIDIUM 69 [-]          
1 25319U 98026A   24060.62187975  .00000366  00000+0  11036-3 0  9990
2 25319  86.3959 295.2276 0003839 116.5487 243.6106 14.39813696354891
IRIDIUM 71 [-]          
1 25320U 98026B   24060.57656778  .00000449  00000+0  13603-3 0  9992
2 25320  86.3944 290.0300 0002042 148.6338 211.4983 14.40138818355406
IRIDIUM 73 [-]          
1 25344U 98032C   24060.78251402  .00000691  00000+0  17217-3 0  9997
2 25344  86.4379 247.5065 0002507 102.3335 257.8150 14.50317938362210
IRIDIUM 82 [-]          
1 25467U 98051A   24060.48975394  .00009815  00000+0  53049-3 0  9994
2 25467  86.3911 337.1784 0134123 259.2479  99.3634 15.07033790352109
IRIDIUM 2 [-]           
1 25527U 98066A   24060.61177498  .00074217  00000+0  10131-2 0  9993
2 25527  85.5156  12.9733 0007241  73.5150 286.6907 15.57188196390880
